<?xml version="1.0" encoding="UTF-8"?>
<gpx creator="StravaGPX" version="1.1" xmlns="http://www.topografix.com/GPX/1/1" xmlns:xsi="http://www.w3.org/2001/XMLSchema-instance" xsi:schemaLocation="http://www.topografix.com/GPX/1/1 http://www.topografix.com/GPX/1/1/gpx.xsd">
 <metadata>
  <name>Mt Coot-tha Back Segment</name>
  <author>
   <name>Bob Wagner</name>
   <link href="https://www.strava.com/athletes/197683"/>
  </author>
  <copyright author="OpenStreetMap contributors">
   <year>2020</year>
   <license>https://www.openstreetmap.org/copyright</license>
  </copyright>
  <link href="https://www.strava.com/routes/3486591012426890882"/>
 </metadata>
 <trk>
  <name>Mt Coot-tha Back Segment</name>
  <link href="https://www.strava.com/routes/3486591012426890882"/>
  <type>cycling</type>
  <trkseg>
   <trkpt lat="-27.465760000000003" lon="152.96496000000002">
    <ele>72.10000000000001</ele>
   </trkpt>
   <trkpt lat="-27.465850000000003" lon="152.96461000000002">
    <ele>75.06</ele>
   </trkpt>
   <trkpt lat="-27.46581" lon="152.9644">
    <ele>76.24</ele>
   </trkpt>
   <trkpt lat="-27.465690000000002" lon="152.96413">
    <ele>79.66000000000001</ele>
   </trkpt>
   <trkpt lat="-27.465320000000002" lon="152.96366">
    <ele>83.78</ele>
   </trkpt>
   <trkpt lat="-27.465300000000003" lon="152.96357">
    <ele>84.65</ele>
   </trkpt>
   <trkpt lat="-27.465200000000003" lon="152.96297">
    <ele>91.85</ele>
   </trkpt>
   <trkpt lat="-27.465120000000002" lon="152.96281000000002">
    <ele>91.85</ele>
   </trkpt>
   <trkpt lat="-27.465030000000002" lon="152.96271000000002">
    <ele>91.85</ele>
   </trkpt>
   <trkpt lat="-27.464850000000002" lon="152.96259">
    <ele>96.55000000000001</ele>
   </trkpt>
   <trkpt lat="-27.46477" lon="152.96257">
    <ele>96.55000000000001</ele>
   </trkpt>
   <trkpt lat="-27.46423" lon="152.96254000000002">
    <ele>99.78</ele>
   </trkpt>
   <trkpt lat="-27.464070000000003" lon="152.96247000000002">
    <ele>101.21000000000001</ele>
   </trkpt>
   <trkpt lat="-27.463910000000002" lon="152.96234">
    <ele>102.78</ele>
   </trkpt>
   <trkpt lat="-27.46385" lon="152.96225">
    <ele>103.68</ele>
   </trkpt>
   <trkpt lat="-27.463800000000003" lon="152.96207">
    <ele>105.13000000000001</ele>
   </trkpt>
   <trkpt lat="-27.463790000000003" lon="152.96186">
    <ele>107.7</ele>
   </trkpt>
   <trkpt lat="-27.46385" lon="152.96162">
    <ele>111.88000000000001</ele>
   </trkpt>
   <trkpt lat="-27.464070000000003" lon="152.96130000000002">
    <ele>115.91000000000001</ele>
   </trkpt>
   <trkpt lat="-27.464100000000002" lon="152.96121000000002">
    <ele>115.91000000000001</ele>
   </trkpt>
   <trkpt lat="-27.46411" lon="152.96109">
    <ele>116.88000000000001</ele>
   </trkpt>
   <trkpt lat="-27.46411" lon="152.96097">
    <ele>118.23000000000002</ele>
   </trkpt>
   <trkpt lat="-27.46392" lon="152.96035">
    <ele>123.87</ele>
   </trkpt>
   <trkpt lat="-27.463910000000002" lon="152.96020000000001">
    <ele>123.87</ele>
   </trkpt>
   <trkpt lat="-27.46395" lon="152.96005000000002">
    <ele>126.65</ele>
   </trkpt>
   <trkpt lat="-27.464000000000002" lon="152.95994000000002">
    <ele>126.65</ele>
   </trkpt>
   <trkpt lat="-27.464270000000003" lon="152.95963">
    <ele>130.95000000000002</ele>
   </trkpt>
   <trkpt lat="-27.464350000000003" lon="152.95935">
    <ele>132.11</ele>
   </trkpt>
   <trkpt lat="-27.46432" lon="152.95915000000002">
    <ele>133.57000000000002</ele>
   </trkpt>
   <trkpt lat="-27.464180000000002" lon="152.95878000000002">
    <ele>138.09</ele>
   </trkpt>
   <trkpt lat="-27.46404" lon="152.95861000000002">
    <ele>139.28</ele>
   </trkpt>
   <trkpt lat="-27.463900000000002" lon="152.95850000000002">
    <ele>139.28</ele>
   </trkpt>
   <trkpt lat="-27.463510000000003" lon="152.9583">
    <ele>145.70000000000002</ele>
   </trkpt>
   <trkpt lat="-27.463410000000003" lon="152.95823000000001">
    <ele>145.70000000000002</ele>
   </trkpt>
   <trkpt lat="-27.463240000000003" lon="152.95807000000002">
    <ele>146.81000000000003</ele>
   </trkpt>
   <trkpt lat="-27.463150000000002" lon="152.95790000000002">
    <ele>148.85</ele>
   </trkpt>
   <trkpt lat="-27.463130000000003" lon="152.95771000000002">
    <ele>150.39000000000001</ele>
   </trkpt>
   <trkpt lat="-27.463160000000002" lon="152.95751">
    <ele>152.17</ele>
   </trkpt>
   <trkpt lat="-27.463240000000003" lon="152.95735000000002">
    <ele>153.67</ele>
   </trkpt>
   <trkpt lat="-27.46366" lon="152.95693">
    <ele>157.3</ele>
   </trkpt>
   <trkpt lat="-27.46373" lon="152.95677">
    <ele>163.48000000000002</ele>
   </trkpt>
   <trkpt lat="-27.46374" lon="152.95666">
    <ele>163.48000000000002</ele>
   </trkpt>
   <trkpt lat="-27.46373" lon="152.95646000000002">
    <ele>165.44</ele>
   </trkpt>
   <trkpt lat="-27.463700000000003" lon="152.95631">
    <ele>165.44</ele>
   </trkpt>
   <trkpt lat="-27.46364" lon="152.95623">
    <ele>166.85000000000002</ele>
   </trkpt>
   <trkpt lat="-27.463530000000002" lon="152.95612">
    <ele>169.12</ele>
   </trkpt>
   <trkpt lat="-27.462970000000002" lon="152.95582000000002">
    <ele>175.58</ele>
   </trkpt>
   <trkpt lat="-27.462760000000003" lon="152.95564000000002">
    <ele>179.52</ele>
   </trkpt>
   <trkpt lat="-27.462660000000003" lon="152.95553">
    <ele>179.52</ele>
   </trkpt>
   <trkpt lat="-27.462390000000003" lon="152.95515">
    <ele>182.63000000000002</ele>
   </trkpt>
   <trkpt lat="-27.462310000000002" lon="152.95491">
    <ele>185.48</ele>
   </trkpt>
   <trkpt lat="-27.46216" lon="152.95435">
    <ele>190.52</ele>
   </trkpt>
   <trkpt lat="-27.46215" lon="152.95416">
    <ele>192.46</ele>
   </trkpt>
   <trkpt lat="-27.462190000000003" lon="152.95403000000002">
    <ele>193.64000000000001</ele>
   </trkpt>
   <trkpt lat="-27.46225" lon="152.95383">
    <ele>193.64000000000001</ele>
   </trkpt>
   <trkpt lat="-27.462390000000003" lon="152.95363">
    <ele>197.01000000000002</ele>
   </trkpt>
   <trkpt lat="-27.46254" lon="152.95350000000002">
    <ele>197.9</ele>
   </trkpt>
   <trkpt lat="-27.46289" lon="152.95335">
    <ele>204.14000000000001</ele>
   </trkpt>
   <trkpt lat="-27.46309" lon="152.95324000000002">
    <ele>205.17000000000002</ele>
   </trkpt>
   <trkpt lat="-27.463545000861718" lon="152.95277500182777">
    <ele>212.9</ele>
   </trkpt>
   <trkpt lat="-27.464000000000002" lon="152.95231">
    <ele>222.49</ele>
   </trkpt>
   <trkpt lat="-27.464170000000003" lon="152.95208000000002">
    <ele>224.89000000000001</ele>
   </trkpt>
   <trkpt lat="-27.464270000000003" lon="152.95177">
    <ele>228.74</ele>
   </trkpt>
   <trkpt lat="-27.464270000000003" lon="152.95152000000002">
    <ele>231.17000000000002</ele>
   </trkpt>
   <trkpt lat="-27.464190000000002" lon="152.95129">
    <ele>232.56</ele>
   </trkpt>
   <trkpt lat="-27.46385" lon="152.95051">
    <ele>240.25</ele>
   </trkpt>
   <trkpt lat="-27.46367" lon="152.95002000000002">
    <ele>246.34000000000003</ele>
   </trkpt>
   <trkpt lat="-27.463495002360524" lon="152.9492049986529">
    <ele>253.16</ele>
   </trkpt>
   <trkpt lat="-27.463320000000003" lon="152.94839000000002">
    <ele>258.04</ele>
   </trkpt>
   <trkpt lat="-27.463310000000003" lon="152.94801">
    <ele>262.65</ele>
   </trkpt>
   <trkpt lat="-27.463430000000002" lon="152.94709">
    <ele>274.32</ele>
   </trkpt>
  </trkseg>
 </trk>
</gpx>
