<?xml version="1.0" encoding="UTF-8"?><gpx version="1.1" creator="test" xmlns="http://www.topografix.com/GPX/1/1"><trk><name>TEST_RIDE_WITH_EFFORT</name><trkseg><trkpt lat="45.02" lon="7.02"><ele>95</ele><time>2024-05-01T10:00:00Z</time></trkpt><trkpt lat="45.01" lon="7.01"><ele>97</ele><time>2024-05-01T10:00:30Z</time></trkpt><trkpt lat="45.0" lon="7.0"><ele>100</ele><time>2024-05-01T10:01:00Z</time></trkpt><trkpt lat="45.0005" lon="7.0005"><ele>105</ele><time>2024-05-01T10:01:30Z</time></trkpt><trkpt lat="45.001" lon="7.001"><ele>110</ele><time>2024-05-01T10:02:00Z</time></trkpt><trkpt lat="45.005" lon="7.005"><ele>115</ele><time>2024-05-01T10:03:00Z</time></trkpt></trkseg></trk></gpx>