<?xml version="1.0" encoding="UTF-8"?>
<gpx creator="StravaGPX" version="1.1" xmlns="http://www.topografix.com/GPX/1/1" xmlns:xsi="http://www.w3.org/2001/XMLSchema-instance" xsi:schemaLocation="http://www.topografix.com/GPX/1/1 http://www.topografix.com/GPX/1/1/gpx.xsd">
 <metadata>
  <name>Mt Gravatt Segment</name>
  <author>
   <name>Bob Wagner</name>
   <link href="https://www.strava.com/athletes/197683"/>
  </author>
  <copyright author="OpenStreetMap contributors">
   <year>2020</year>
   <license>https://www.openstreetmap.org/copyright</license>
  </copyright>
  <link href="https://www.strava.com/routes/3486586557720998870"/>
 </metadata>
 <trk>
  <name>Mt Gravatt Segment</name>
  <link href="https://www.strava.com/routes/3486586557720998870"/>
  <type>cycling</type>
  <trkseg>
   <trkpt lat="-27.5374" lon="153.07706000000002">
    <ele>59.120000000000005</ele>
   </trkpt>
   <trkpt lat="-27.537760000000002" lon="153.07649">
    <ele>65.49000000000001</ele>
   </trkpt>
   <trkpt lat="-27.538140000000002" lon="153.07592000000002">
    <ele>72.06</ele>
   </trkpt>
   <trkpt lat="-27.538310000000003" lon="153.07571000000002">
    <ele>73.93</ele>
   </trkpt>
   <trkpt lat="-27.538400000000003" lon="153.07569">
    <ele>75.55000000000001</ele>
   </trkpt>
   <trkpt lat="-27.538510000000002" lon="153.07569">
    <ele>75.55000000000001</ele>
   </trkpt>
   <trkpt lat="-27.538700000000002" lon="153.07578">
    <ele>77.11000000000001</ele>
   </trkpt>
   <trkpt lat="-27.5389" lon="153.07597">
    <ele>80.03999999999999</ele>
   </trkpt>
   <trkpt lat="-27.53967" lon="153.07633">
    <ele>86.33</ele>
   </trkpt>
   <trkpt lat="-27.54034" lon="153.07653000000002">
    <ele>92.62</ele>
   </trkpt>
   <trkpt lat="-27.541024999952487" lon="153.07657499971586">
    <ele>97.57000000000001</ele>
   </trkpt>
   <trkpt lat="-27.541710000000002" lon="153.07662000000002">
    <ele>104.4</ele>
   </trkpt>
   <trkpt lat="-27.541960000000003" lon="153.07672000000002">
    <ele>105.44</ele>
   </trkpt>
   <trkpt lat="-27.542170000000002" lon="153.07677">
    <ele>108.05000000000001</ele>
   </trkpt>
   <trkpt lat="-27.542360000000002" lon="153.07678">
    <ele>108.77000000000001</ele>
   </trkpt>
   <trkpt lat="-27.54306" lon="153.07672000000002">
    <ele>115.45</ele>
   </trkpt>
   <trkpt lat="-27.54315" lon="153.07668">
    <ele>115.45</ele>
   </trkpt>
   <trkpt lat="-27.5435" lon="153.07619000000003">
    <ele>120.95000000000002</ele>
   </trkpt>
   <trkpt lat="-27.54361" lon="153.07606">
    <ele>122.11000000000001</ele>
   </trkpt>
   <trkpt lat="-27.543740000000003" lon="153.07599000000002">
    <ele>124.12</ele>
   </trkpt>
   <trkpt lat="-27.543960000000002" lon="153.07593">
    <ele>126.08</ele>
   </trkpt>
   <trkpt lat="-27.54417" lon="153.07595">
    <ele>126.08</ele>
   </trkpt>
   <trkpt lat="-27.54435" lon="153.07594">
    <ele>128.99</ele>
   </trkpt>
   <trkpt lat="-27.54444" lon="153.07591000000002">
    <ele>129.73000000000002</ele>
   </trkpt>
   <trkpt lat="-27.54454" lon="153.07580000000002">
    <ele>130.71</ele>
   </trkpt>
   <trkpt lat="-27.544590000000003" lon="153.07569">
    <ele>131.70000000000002</ele>
   </trkpt>
   <trkpt lat="-27.54454" lon="153.07551">
    <ele>132.17000000000002</ele>
   </trkpt>
   <trkpt lat="-27.544430000000002" lon="153.0753">
    <ele>133.88</ele>
   </trkpt>
   <trkpt lat="-27.54399" lon="153.07486">
    <ele>137.48000000000002</ele>
   </trkpt>
   <trkpt lat="-27.54379" lon="153.07457000000002">
    <ele>138.99</ele>
   </trkpt>
   <trkpt lat="-27.543770000000002" lon="153.07443">
    <ele>139.47</ele>
   </trkpt>
   <trkpt lat="-27.54379" lon="153.07431000000003">
    <ele>140.27</ele>
   </trkpt>
   <trkpt lat="-27.543860000000002" lon="153.07425">
    <ele>140.49</ele>
   </trkpt>
   <trkpt lat="-27.54416" lon="153.07415">
    <ele>142.21</ele>
   </trkpt>
   <trkpt lat="-27.544330000000002" lon="153.07395000000002">
    <ele>144.99</ele>
   </trkpt>
   <trkpt lat="-27.54435" lon="153.07378">
    <ele>145.66</ele>
   </trkpt>
   <trkpt lat="-27.54437" lon="153.07342">
    <ele>147.86</ele>
   </trkpt>
   <trkpt lat="-27.544420000000002" lon="153.07324">
    <ele>148.69000000000003</ele>
   </trkpt>
   <trkpt lat="-27.544490000000003" lon="153.07314000000002">
    <ele>149.74</ele>
   </trkpt>
   <trkpt lat="-27.544590000000003" lon="153.07305000000002">
    <ele>149.74</ele>
   </trkpt>
   <trkpt lat="-27.544890000000002" lon="153.07298">
    <ele>151.93</ele>
   </trkpt>
   <trkpt lat="-27.54519" lon="153.07301">
    <ele>154.06</ele>
   </trkpt>
   <trkpt lat="-27.545460000000002" lon="153.07298">
    <ele>155.17</ele>
   </trkpt>
   <trkpt lat="-27.545550000000002" lon="153.07289">
    <ele>155.47000000000003</ele>
   </trkpt>
   <trkpt lat="-27.545620000000003" lon="153.0728">
    <ele>155.72000000000003</ele>
   </trkpt>
   <trkpt lat="-27.545620000000003" lon="153.07256">
    <ele>155.77</ele>
   </trkpt>
   <trkpt lat="-27.545540000000003" lon="153.07247">
    <ele>155.62</ele>
   </trkpt>
   <trkpt lat="-27.545430000000003" lon="153.07241000000002">
    <ele>155.59</ele>
   </trkpt>
   <trkpt lat="-27.545270000000002" lon="153.07240000000002">
    <ele>155.69000000000003</ele>
   </trkpt>
   <trkpt lat="-27.544810000000002" lon="153.07252000000003">
    <ele>157.74</ele>
   </trkpt>
   <trkpt lat="-27.54455" lon="153.07262">
    <ele>158.79000000000002</ele>
   </trkpt>
   <trkpt lat="-27.54445" lon="153.07268000000002">
    <ele>158.79000000000002</ele>
   </trkpt>
   <trkpt lat="-27.544240000000002" lon="153.07286000000002">
    <ele>162.92000000000002</ele>
   </trkpt>
   <trkpt lat="-27.544140000000002" lon="153.07296000000002">
    <ele>164.09</ele>
   </trkpt>
   <trkpt lat="-27.543860000000002" lon="153.07341000000002">
    <ele>167.84</ele>
   </trkpt>
   <trkpt lat="-27.543770000000002" lon="153.07351">
    <ele>168.56</ele>
   </trkpt>
   <trkpt lat="-27.54339000049945" lon="153.07382500096983">
    <ele>173.18</ele>
   </trkpt>
   <trkpt lat="-27.543010000000002" lon="153.07414">
    <ele>175.92000000000002</ele>
   </trkpt>
   <trkpt lat="-27.54285" lon="153.07418">
    <ele>177.31000000000003</ele>
   </trkpt>
   <trkpt lat="-27.54277" lon="153.07419000000002">
    <ele>178.50000000000003</ele>
   </trkpt>
   <trkpt lat="-27.542630000000003" lon="153.07415">
    <ele>178.50000000000003</ele>
   </trkpt>
   <trkpt lat="-27.54249" lon="153.07406">
    <ele>180.1</ele>
   </trkpt>
   <trkpt lat="-27.542260000000002" lon="153.07376000000002">
    <ele>182.46</ele>
   </trkpt>
   <trkpt lat="-27.542170000000002" lon="153.07343">
    <ele>186.07000000000002</ele>
   </trkpt>
   <trkpt lat="-27.542160000000003" lon="153.07328">
    <ele>187.21</ele>
   </trkpt>
   <trkpt lat="-27.54221" lon="153.07305000000002">
    <ele>189.8</ele>
   </trkpt>
   <trkpt lat="-27.542410000000004" lon="153.07266">
    <ele>192.23000000000002</ele>
   </trkpt>
   <trkpt lat="-27.542460000000002" lon="153.07266">
    <ele>192.72</ele>
   </trkpt>
   <trkpt lat="-27.542550000000002" lon="153.07269000000002">
    <ele>192.86</ele>
   </trkpt>
   <trkpt lat="-27.54257" lon="153.07274">
    <ele>193.10000000000002</ele>
   </trkpt>
   <trkpt lat="-27.542550000000002" lon="153.07296000000002">
    <ele>193.3</ele>
   </trkpt>
   <trkpt lat="-27.542650000000002" lon="153.07305000000002">
    <ele>193.47</ele>
   </trkpt>
   <trkpt lat="-27.542710000000003" lon="153.07304000000002">
    <ele>193.47</ele>
   </trkpt>
   <trkpt lat="-27.54276" lon="153.073">
    <ele>193.53</ele>
   </trkpt>
   <trkpt lat="-27.542800000000003" lon="153.07292">
    <ele>193.53</ele>
   </trkpt>
   <trkpt lat="-27.54277" lon="153.07281">
    <ele>193.42000000000002</ele>
   </trkpt>
   <trkpt lat="-27.542720000000003" lon="153.07276000000002">
    <ele>193.42000000000002</ele>
   </trkpt>
   <trkpt lat="-27.54267" lon="153.07275">
    <ele>193.10000000000002</ele>
   </trkpt>
   <trkpt lat="-27.542640000000002" lon="153.07276000000002">
    <ele>193.10000000000002</ele>
   </trkpt>
   <trkpt lat="-27.54257" lon="153.07281">
    <ele>193.10000000000002</ele>
   </trkpt>
  </trkseg>
 </trk>
</gpx>
