<?xml version="1.0" encoding="UTF-8"?>
<gpx creator="StravaGPX" version="1.1" xmlns="http://www.topografix.com/GPX/1/1" xmlns:xsi="http://www.w3.org/2001/XMLSchema-instance" xsi:schemaLocation="http://www.topografix.com/GPX/1/1 http://www.topografix.com/GPX/1/1/gpx.xsd">
 <metadata>
  <name>Corro Drive Segment</name>
  <author>
   <name>Bob Wagner</name>
   <link href="https://www.strava.com/athletes/197683"/>
  </author>
  <copyright author="OpenStreetMap contributors">
   <year>2020</year>
   <license>https://www.openstreetmap.org/copyright</license>
  </copyright>
  <link href="https://www.strava.com/routes/3486720734126167038"/>
 </metadata>
 <trk>
  <name>Corro Drive Segment</name>
  <link href="https://www.strava.com/routes/3486720734126167038"/>
  <type>cycling</type>
  <trkseg>
   <trkpt lat="-27.470660000000002" lon="153.00839000000002">
    <ele>9.66</ele>
   </trkpt>
   <trkpt lat="-27.47124" lon="153.00767000000002">
    <ele>10.09</ele>
   </trkpt>
   <trkpt lat="-27.47184500183273" lon="153.00694500403398">
    <ele>11.19</ele>
   </trkpt>
   <trkpt lat="-27.472450000000002" lon="153.00622">
    <ele>11.1</ele>
   </trkpt>
   <trkpt lat="-27.472800000000003" lon="153.00578000000002">
    <ele>10.93</ele>
   </trkpt>
   <trkpt lat="-27.472900000000003" lon="153.00567">
    <ele>10.950000000000001</ele>
   </trkpt>
   <trkpt lat="-27.47332" lon="153.00511">
    <ele>10.58</ele>
   </trkpt>
   <trkpt lat="-27.473670000000002" lon="153.0047">
    <ele>10.26</ele>
   </trkpt>
   <trkpt lat="-27.474210000000003" lon="153.00415">
    <ele>10.46</ele>
   </trkpt>
   <trkpt lat="-27.474840001252314" lon="153.00357000326966">
    <ele>10.63</ele>
   </trkpt>
   <trkpt lat="-27.47547" lon="153.00299">
    <ele>11.66</ele>
   </trkpt>
   <trkpt lat="-27.476045001527623" lon="153.002335003424">
    <ele>12.24</ele>
   </trkpt>
   <trkpt lat="-27.47662" lon="153.00168000000002">
    <ele>12.24</ele>
   </trkpt>
   <trkpt lat="-27.47725333666428" lon="153.00099667452878">
    <ele>12.13</ele>
   </trkpt>
   <trkpt lat="-27.47788666999253" lon="153.00031334120106">
    <ele>11.62</ele>
   </trkpt>
   <trkpt lat="-27.478520000000003" lon="152.99963000000002">
    <ele>11.27</ele>
   </trkpt>
   <trkpt lat="-27.478930000496906" lon="152.99923500152835">
    <ele>11.080000000000002</ele>
   </trkpt>
   <trkpt lat="-27.47934" lon="152.99884">
    <ele>10.63</ele>
   </trkpt>
   <trkpt lat="-27.47985500054813" lon="152.9984300019585">
    <ele>9.840000000000002</ele>
   </trkpt>
   <trkpt lat="-27.48037" lon="152.99802000000003">
    <ele>8.81</ele>
   </trkpt>
   <trkpt lat="-27.48091000059548" lon="152.9976600016765">
    <ele>8.270000000000001</ele>
   </trkpt>
   <trkpt lat="-27.481450000000002" lon="152.99730000000002">
    <ele>8.610000000000001</ele>
   </trkpt>
   <trkpt lat="-27.48213" lon="152.9969">
    <ele>9.46</ele>
   </trkpt>
  </trkseg>
 </trk>
</gpx>
