<?xml version="1.0" encoding="UTF-8"?>
<gpx creator="StravaGPX" version="1.1" xmlns="http://www.topografix.com/GPX/1/1" xmlns:xsi="http://www.w3.org/2001/XMLSchema-instance" xsi:schemaLocation="http://www.topografix.com/GPX/1/1 http://www.topografix.com/GPX/1/1/gpx.xsd">
 <metadata>
  <name>Fernvale Rd Segment</name>
  <author>
   <name>Bob Wagner</name>
   <link href="https://www.strava.com/athletes/197683"/>
  </author>
  <copyright author="OpenStreetMap contributors">
   <year>2020</year>
   <license>https://www.openstreetmap.org/copyright</license>
  </copyright>
  <link href="https://www.strava.com/routes/3486711787510720750"/>
 </metadata>
 <trk>
  <name>Fernvale Rd Segment</name>
  <link href="https://www.strava.com/routes/3486711787510720750"/>
  <type>cycling</type>
  <trkseg>
   <trkpt lat="-27.52652" lon="153.04029">
    <ele>32.6</ele>
   </trkpt>
   <trkpt lat="-27.526680000000002" lon="153.04001000000002">
    <ele>33.72</ele>
   </trkpt>
   <trkpt lat="-27.526880000726354" lon="153.0395350010556">
    <ele>34.29</ele>
   </trkpt>
   <trkpt lat="-27.52708" lon="153.03906">
    <ele>34.53</ele>
   </trkpt>
   <trkpt lat="-27.527465002066116" lon="153.03828500287935">
    <ele>36.53</ele>
   </trkpt>
   <trkpt lat="-27.52785" lon="153.03751000000003">
    <ele>39.41</ele>
   </trkpt>
   <trkpt lat="-27.528346671221367" lon="153.03671000726663">
    <ele>41.54</ele>
   </trkpt>
   <trkpt lat="-27.5288433378646" lon="153.0359100073045">
    <ele>43.56</ele>
   </trkpt>
   <trkpt lat="-27.52934" lon="153.03511">
    <ele>46.580000000000005</ele>
   </trkpt>
   <trkpt lat="-27.529410000000002" lon="153.03495">
    <ele>46.82</ele>
   </trkpt>
   <trkpt lat="-27.52991" lon="153.03424">
    <ele>51.730000000000004</ele>
   </trkpt>
   <trkpt lat="-27.529970000000002" lon="153.0342">
    <ele>52.34</ele>
   </trkpt>
   <trkpt lat="-27.530220000000003" lon="153.03384000000003">
    <ele>55.27</ele>
   </trkpt>
   <trkpt lat="-27.530450000000002" lon="153.03355000000002">
    <ele>56.910000000000004</ele>
   </trkpt>
   <trkpt lat="-27.530510000000003" lon="153.03343">
    <ele>57.53</ele>
   </trkpt>
   <trkpt lat="-27.530450000000002" lon="153.03332">
    <ele>58.25</ele>
   </trkpt>
   <trkpt lat="-27.530320000000003" lon="153.03252">
    <ele>64.45</ele>
   </trkpt>
  </trkseg>
 </trk>
</gpx>
