<?xml version="1.0" encoding="UTF-8"?>
<gpx creator="StravaGPX" version="1.1" xmlns="http://www.topografix.com/GPX/1/1" xmlns:xsi="http://www.w3.org/2001/XMLSchema-instance" xsi:schemaLocation="http://www.topografix.com/GPX/1/1 http://www.topografix.com/GPX/1/1/gpx.xsd">
 <metadata>
  <name>V1 Toothey Hill Segment</name>
  <author>
   <name>Bob Wagner</name>
   <link href="https://www.strava.com/athletes/197683"/>
  </author>
  <copyright author="OpenStreetMap contributors">
   <year>2020</year>
   <license>https://www.openstreetmap.org/copyright</license>
  </copyright>
  <link href="https://www.strava.com/routes/3486594619648857458"/>
 </metadata>
 <trk>
  <name>V1 Toothey Hill Segment</name>
  <link href="https://www.strava.com/routes/3486594619648857458"/>
  <type>cycling</type>
  <trkseg>
   <trkpt lat="-27.535020000000003" lon="153.0577">
    <ele>37.26</ele>
   </trkpt>
   <trkpt lat="-27.535230000000002" lon="153.05774000000002">
    <ele>37.970000000000006</ele>
   </trkpt>
   <trkpt lat="-27.535420000000002" lon="153.05782000000002">
    <ele>39.769999999999996</ele>
   </trkpt>
   <trkpt lat="-27.535510000000002" lon="153.05783000000002">
    <ele>40.53</ele>
   </trkpt>
   <trkpt lat="-27.53552" lon="153.05780000000001">
    <ele>40.53</ele>
   </trkpt>
   <trkpt lat="-27.535870000000003" lon="153.05802">
    <ele>42.02</ele>
   </trkpt>
   <trkpt lat="-27.536080000000002" lon="153.05812">
    <ele>44.22</ele>
   </trkpt>
   <trkpt lat="-27.53684000019561" lon="153.05835499837417">
    <ele>47.540000000000006</ele>
   </trkpt>
   <trkpt lat="-27.5376" lon="153.05859">
    <ele>51.83</ele>
   </trkpt>
   <trkpt lat="-27.53804500009712" lon="153.05869999956786">
    <ele>53.78</ele>
   </trkpt>
   <trkpt lat="-27.538490000000003" lon="153.05881000000002">
    <ele>56.010000000000005</ele>
   </trkpt>
   <trkpt lat="-27.538970000315892" lon="153.05894499948081">
    <ele>57.85</ele>
   </trkpt>
   <trkpt lat="-27.539450000000002" lon="153.05908000000002">
    <ele>59.10000000000001</ele>
   </trkpt>
   <trkpt lat="-27.540300000000002" lon="153.05939">
    <ele>64.45</ele>
   </trkpt>
   <trkpt lat="-27.540775000130633" lon="153.05958999913014">
    <ele>65.56</ele>
   </trkpt>
   <trkpt lat="-27.54125" lon="153.05979000000002">
    <ele>68.07000000000001</ele>
   </trkpt>
   <trkpt lat="-27.541664999944967" lon="153.05999499912423">
    <ele>70.02</ele>
   </trkpt>
   <trkpt lat="-27.542080000000002" lon="153.0602">
    <ele>71.9</ele>
   </trkpt>
   <trkpt lat="-27.54284" lon="153.06063">
    <ele>76.97000000000001</ele>
   </trkpt>
   <trkpt lat="-27.543480000000002" lon="153.06103000000002">
    <ele>79.16000000000001</ele>
   </trkpt>
   <trkpt lat="-27.543840000000003" lon="153.06128">
    <ele>80.44000000000001</ele>
   </trkpt>
   <trkpt lat="-27.543820000000004" lon="153.06127">
    <ele>80.37</ele>
   </trkpt>
  </trkseg>
 </trk>
</gpx>
