<?xml version="1.0" encoding="UTF-8"?><gpx version="1.1" creator="test" xmlns="http://www.topografix.com/GPX/1/1"><trk><name>Unnamed</name><trkseg><trkpt lat="51.5074" lon="-0.1278"><ele>30</ele><time>2024-07-01T09:00:00Z</time></trkpt><trkpt lat="51.5075" lon="-0.1277"><ele>32</ele><time>2024-07-01T09:00:30Z</time></trkpt><trkpt lat="51.5076" lon="-0.1276"><ele>35</ele><time>2024-07-01T09:01:00Z</time></trkpt><trkpt lat="51.5077" lon="-0.1275"><ele>40</ele><time>2024-07-01T09:01:30Z</time></trkpt><trkpt lat="51.5078" lon="-0.1274"><ele>50</ele><time>2024-07-01T09:02:00Z</time></trkpt></trkseg></trk></gpx>