<?xml version="1.0" encoding="UTF-8"?>
<gpx creator="StravaGPX" version="1.1" xmlns="http://www.topografix.com/GPX/1/1" xmlns:xsi="http://www.w3.org/2001/XMLSchema-instance" xsi:schemaLocation="http://www.topografix.com/GPX/1/1 http://www.topografix.com/GPX/1/1/gpx.xsd">
 <metadata>
  <name>Mt Coot-tha Front Segment</name>
  <author>
   <name>Bob Wagner</name>
   <link href="https://www.strava.com/athletes/197683"/>
  </author>
  <copyright author="OpenStreetMap contributors">
   <year>2020</year>
   <license>https://www.openstreetmap.org/copyright</license>
  </copyright>
  <link href="https://www.strava.com/routes/3486594619648136562"/>
 </metadata>
 <trk>
  <name>Mt Coot-tha Front Segment</name>
  <link href="https://www.strava.com/routes/3486594619648136562"/>
  <type>cycling</type>
  <trkseg>
   <trkpt lat="-27.473570000000002" lon="152.97239000000002">
    <ele>77.58000000000001</ele>
   </trkpt>
   <trkpt lat="-27.4737" lon="152.97207">
    <ele>81.64</ele>
   </trkpt>
   <trkpt lat="-27.473993336094765" lon="152.97144667001592">
    <ele>87.06000000000002</ele>
   </trkpt>
   <trkpt lat="-27.474286669413814" lon="152.97082333671298">
    <ele>96.33000000000001</ele>
   </trkpt>
   <trkpt lat="-27.474580000000003" lon="152.9702">
    <ele>103.91</ele>
   </trkpt>
   <trkpt lat="-27.474690000000002" lon="152.96986">
    <ele>106.66</ele>
   </trkpt>
   <trkpt lat="-27.474700000000002" lon="152.96970000000002">
    <ele>107.88</ele>
   </trkpt>
   <trkpt lat="-27.47463" lon="152.96913">
    <ele>111.89</ele>
   </trkpt>
   <trkpt lat="-27.47463" lon="152.96894">
    <ele>113.04</ele>
   </trkpt>
   <trkpt lat="-27.474680000000003" lon="152.96869">
    <ele>115.74000000000001</ele>
   </trkpt>
   <trkpt lat="-27.474780000000003" lon="152.9685">
    <ele>116.75</ele>
   </trkpt>
   <trkpt lat="-27.474870000000003" lon="152.96839">
    <ele>119.15</ele>
   </trkpt>
   <trkpt lat="-27.475070000000002" lon="152.96824">
    <ele>119.15</ele>
   </trkpt>
   <trkpt lat="-27.47519" lon="152.96820000000002">
    <ele>119.15</ele>
   </trkpt>
   <trkpt lat="-27.47577" lon="152.96816">
    <ele>124.05000000000001</ele>
   </trkpt>
   <trkpt lat="-27.47593" lon="152.96812">
    <ele>124.94000000000001</ele>
   </trkpt>
   <trkpt lat="-27.476190000000003" lon="152.96803">
    <ele>126.83</ele>
   </trkpt>
   <trkpt lat="-27.476290000000002" lon="152.96796">
    <ele>126.83</ele>
   </trkpt>
   <trkpt lat="-27.47669" lon="152.96755000000002">
    <ele>129.22</ele>
   </trkpt>
   <trkpt lat="-27.477320000000002" lon="152.96697">
    <ele>135.09</ele>
   </trkpt>
   <trkpt lat="-27.477700000000002" lon="152.96658000000002">
    <ele>139.12</ele>
   </trkpt>
   <trkpt lat="-27.477890000000002" lon="152.96640000000002">
    <ele>140.77</ele>
   </trkpt>
   <trkpt lat="-27.478180000000002" lon="152.96602000000001">
    <ele>145.11</ele>
   </trkpt>
   <trkpt lat="-27.478460000000002" lon="152.96541000000002">
    <ele>148.36</ele>
   </trkpt>
   <trkpt lat="-27.47857" lon="152.96529">
    <ele>148.91000000000003</ele>
   </trkpt>
   <trkpt lat="-27.479110000000002" lon="152.96502">
    <ele>152.76</ele>
   </trkpt>
   <trkpt lat="-27.479200000000002" lon="152.96495000000002">
    <ele>154.53</ele>
   </trkpt>
   <trkpt lat="-27.479390000000002" lon="152.96473">
    <ele>155.97000000000003</ele>
   </trkpt>
   <trkpt lat="-27.479470000000003" lon="152.96457">
    <ele>156.5</ele>
   </trkpt>
   <trkpt lat="-27.47952" lon="152.96438">
    <ele>156.85000000000002</ele>
   </trkpt>
   <trkpt lat="-27.47961" lon="152.96424000000002">
    <ele>156.5</ele>
   </trkpt>
   <trkpt lat="-27.479850000000003" lon="152.96398000000002">
    <ele>155.09</ele>
   </trkpt>
   <trkpt lat="-27.480280000093554" lon="152.96369500124285">
    <ele>153.97000000000003</ele>
   </trkpt>
   <trkpt lat="-27.480710000000002" lon="152.96341">
    <ele>158.52</ele>
   </trkpt>
   <trkpt lat="-27.480970000000003" lon="152.96316000000002">
    <ele>162.54999999999998</ele>
   </trkpt>
   <trkpt lat="-27.481370000000002" lon="152.96262000000002">
    <ele>169.99</ele>
   </trkpt>
   <trkpt lat="-27.48169500074204" lon="152.96223500088422">
    <ele>175.45000000000002</ele>
   </trkpt>
   <trkpt lat="-27.482020000000002" lon="152.96185">
    <ele>178.63</ele>
   </trkpt>
   <trkpt lat="-27.482210000000002" lon="152.96168">
    <ele>179.62</ele>
   </trkpt>
   <trkpt lat="-27.482390000000002" lon="152.96156000000002">
    <ele>183.79</ele>
   </trkpt>
   <trkpt lat="-27.482940000000003" lon="152.96137000000002">
    <ele>191.3</ele>
   </trkpt>
   <trkpt lat="-27.483590000000003" lon="152.96086000000003">
    <ele>197.13000000000002</ele>
   </trkpt>
   <trkpt lat="-27.483800000000002" lon="152.96069">
    <ele>199.33</ele>
   </trkpt>
   <trkpt lat="-27.484080000000002" lon="152.96039000000002">
    <ele>203.99</ele>
   </trkpt>
   <trkpt lat="-27.48412" lon="152.96030000000002">
    <ele>205.53</ele>
   </trkpt>
   <trkpt lat="-27.484150000000003" lon="152.96014000000002">
    <ele>205.68000000000004</ele>
   </trkpt>
   <trkpt lat="-27.48393" lon="152.95968000000002">
    <ele>204.39000000000001</ele>
   </trkpt>
   <trkpt lat="-27.48392" lon="152.95957">
    <ele>204.39000000000001</ele>
   </trkpt>
   <trkpt lat="-27.48394" lon="152.95945">
    <ele>203.99</ele>
   </trkpt>
   <trkpt lat="-27.483990000000002" lon="152.95937">
    <ele>203.93000000000004</ele>
   </trkpt>
   <trkpt lat="-27.48438" lon="152.95896000000002">
    <ele>205.11</ele>
   </trkpt>
   <trkpt lat="-27.48447" lon="152.95883">
    <ele>205.55</ele>
   </trkpt>
   <trkpt lat="-27.484540000000003" lon="152.95871000000002">
    <ele>206.35</ele>
   </trkpt>
   <trkpt lat="-27.48457" lon="152.95841000000001">
    <ele>208.32</ele>
   </trkpt>
   <trkpt lat="-27.48466" lon="152.95823000000001">
    <ele>208.32</ele>
   </trkpt>
   <trkpt lat="-27.484740000000002" lon="152.95803">
    <ele>211.55</ele>
   </trkpt>
   <trkpt lat="-27.484720000000003" lon="152.95779000000002">
    <ele>213.57</ele>
   </trkpt>
   <trkpt lat="-27.48458" lon="152.95739">
    <ele>217.29000000000002</ele>
   </trkpt>
   <trkpt lat="-27.48457" lon="152.95725000000002">
    <ele>218.58</ele>
   </trkpt>
   <trkpt lat="-27.48459" lon="152.95719000000003">
    <ele>218.58</ele>
   </trkpt>
  </trkseg>
 </trk>
</gpx>
