<?xml version="1.0" encoding="UTF-8"?>
<gpx creator="StravaGPX" version="1.1" xmlns="http://www.topografix.com/GPX/1/1" xmlns:xsi="http://www.w3.org/2001/XMLSchema-instance" xsi:schemaLocation="http://www.topografix.com/GPX/1/1 http://www.topografix.com/GPX/1/1/gpx.xsd">
 <metadata>
  <name>Cemetry Hill Segment</name>
  <author>
   <name>Bob Wagner</name>
   <link href="https://www.strava.com/athletes/197683"/>
  </author>
  <copyright author="OpenStreetMap contributors">
   <year>2020</year>
   <license>https://www.openstreetmap.org/copyright</license>
  </copyright>
  <link href="https://www.strava.com/routes/3487313723367354162"/>
 </metadata>
 <trk>
  <name>Cemetry Hill Segment</name>
  <link href="https://www.strava.com/routes/3487313723367354162"/>
  <type>cycling</type>
  <trkseg>
   <trkpt lat="-27.49707" lon="153.02381000000003">
    <ele>15.540000000000001</ele>
   </trkpt>
   <trkpt lat="-27.497130000000002" lon="153.02388000000002">
    <ele>16.099999999999998</ele>
   </trkpt>
   <trkpt lat="-27.49752" lon="153.02412">
    <ele>17.79</ele>
   </trkpt>
   <trkpt lat="-27.49763" lon="153.02421">
    <ele>18.56</ele>
   </trkpt>
   <trkpt lat="-27.497690000000002" lon="153.02429">
    <ele>19.37</ele>
   </trkpt>
   <trkpt lat="-27.49771" lon="153.02442000000002">
    <ele>20.34</ele>
   </trkpt>
   <trkpt lat="-27.497660000000003" lon="153.02458000000001">
    <ele>22.36</ele>
   </trkpt>
   <trkpt lat="-27.49754" lon="153.02467000000001">
    <ele>24.270000000000003</ele>
   </trkpt>
   <trkpt lat="-27.49745" lon="153.02470000000002">
    <ele>27.720000000000002</ele>
   </trkpt>
   <trkpt lat="-27.497030000000002" lon="153.02471">
    <ele>32.24</ele>
   </trkpt>
   <trkpt lat="-27.496850000000002" lon="153.02477000000002">
    <ele>33.64</ele>
   </trkpt>
   <trkpt lat="-27.496180000000003" lon="153.02519">
    <ele>37.87</ele>
   </trkpt>
   <trkpt lat="-27.49604" lon="153.02523000000002">
    <ele>38.44</ele>
   </trkpt>
  </trkseg>
 </trk>
</gpx>
